OBJECT_NAME,OBJECT_ID,EPOCH,MEAN_MOTION,ECCENTRICITY,INCLINATION,RA_OF_ASC_NODE,ARG_OF_PERICENTER,MEAN_ANOMALY,EPHEMERIS_TYPE,CLASSIFICATION_TYPE,NORAD_CAT_ID,ELEMENT_SET_NO,REV_AT_EPOCH,BSTAR,MEAN_MOTION_DOT,MEAN_MOTION_DDOT
BADR-5,2010-025A,2026-07-14T20:58:38.588736,1.00270318,.0005132,0.0493,117.1729,78.9737,81.6960,0,U,36592,999,5349,0,.145E-5,0
COMS 1,2010-032A,2026-07-14T11:00:38.789856,0.99168113,.00112678,4.8730,75.0265,14.7056,332.7369,0,U,36744,999,5135,0,-.258E-5,0
ARABSAT-5A,2010-032B,2026-07-14T20:20:31.248096,1.00274041,.0005735,0.1103,66.3768,56.4731,145.4828,0,U,36745,999,5892,0,.145E-5,0
ECHOSTAR 15,2010-034A,2026-07-14T16:16:29.498016,1.00271775,.0001809,0.0492,265.4673,187.9512,324.4208,0,U,36792,999,5859,0,-.8E-7,0
BEIDOU-2 IGSO-1,2010-036A,2026-07-14T22:00:55.325664,1.00264344,.0059021,54.3063,162.7092,225.2797,342.1037,0,U,36828,999,5837,0,-.122E-5,0
NILESAT 201,2010-037A,2026-07-13T11:30:38.532096,1.00271853,.00054772,0.0241,122.3173,16.5206,318.1955,0,U,36830,999,5864,0,-.61E-6,0
RASCOM-QAF 1R,2010-037B,2026-07-14T18:33:54.486720,1.00273159,.0006412,0.0335,85.6358,18.3077,110.0649,0,U,36831,999,5858,0,.1E-6,0
AEHF-1 (USA 214),2010-039A,2026-07-14T20:18:14.946048,1.00274356,.0003735,8.2871,67.6848,37.6469,161.8844,0,U,36868,999,5393,0,.134E-5,0
XM-5,2010-053A,2026-07-13T06:37:25.387392,1.00270903,.0001728,0.0648,265.0318,322.3275,47.9546,0,U,37185,999,5774,0,-.26E-6,0
BSAT-3B,2010-056B,2026-07-14T20:31:55.624224,1.00271349,.0002627,0.0778,246.1088,296.5779,167.8392,0,U,37207,999,5237,0,-.359E-5,0
BEIDOU-2 G4,2010-057A,2026-07-14T19:18:41.259744,1.00269752,.0005743,3.7129,68.7668,184.4843,129.0009,0,U,37210,999,5756,0,-.124E-5,0
SKYTERRA 1,2010-061A,2026-07-14T16:21:21.530016,1.00270230,.0002533,5.1816,50.8079,24.8369,0.9060,0,U,37218,999,5747,0,-.129E-5,0
HYLAS 1,2010-065A,2026-07-14T20:58:38.588736,1.00640728,.0001202,5.7114,72.6765,147.6936,58.9560,0,U,37237,999,716,0,.131E-5,0
INTELSAT 17 (IS-17),2010-065B,2026-07-14T21:02:54.888288,1.00270774,.0002809,0.0330,98.0463,41.2100,175.1832,0,U,37238,999,5352,0,0,0
BEIDOU-2 IGSO-2,2010-068A,2026-07-14T15:38:16.497312,1.00273103,.0056996,47.4976,271.4891,213.8254,150.0718,0,U,37256,999,5707,0,-.189E-5,0
EUTELSAT KA-SAT 9A,2010-069A,2026-07-14T16:52:56.002944,1.00272839,.0004443,0.0612,356.1647,149.4374,49.1842,0,U,37258,999,4428,0,.54E-6,0
HISPASAT 30W-5,2010-070A,2026-07-14T18:24:24.747840,1.00270478,.0005568,0.0281,110.8025,16.3593,51.5622,0,U,37264,999,5346,0,-.225E-5,0
KOREASAT 6,2010-070B,2026-07-14T19:18:33.772320,1.00270983,.0002489,0.0174,40.4676,88.1772,253.5489,0,U,37265,999,5704,0,-.12E-5,0
BEIDOU-2 IGSO-3,2011-013A,2026-07-12T12:18:07.725024,1.00260977,.0035266,62.4426,39.9128,183.3051,358.3524,0,U,37384,999,5591,0,-.165E-5,0
INTELSAT 28 (IS-28),2011-016A,2026-07-14T20:51:39.256704,1.00275881,.000365,1.8755,82.2459,36.2250,95.4515,0,U,37392,999,5356,0,-.235E-5,0
YAHSAT 1A,2011-016B,2026-07-14T10:14:30.266016,1.00269506,.00030707,0.0273,65.8741,47.4743,25.0682,0,U,37393,999,4268,0,0,0
SBIRS GEO-1 (USA 230),2011-019A,2026-07-14T16:38:21.628032,1.00272450,.0001966,4.5954,53.0981,53.3159,127.5295,0,U,37481,999,5567,0,.89E-6,0
TELSTAR 14R,2011-021A,2026-07-14T13:07:01.087104,1.00270342,.00016,0.0856,84.9749,1.1935,339.9946,0,U,37602,999,5610,0,-.288E-5,0
GSAT-8,2011-022A,2026-07-14T20:50:18.211776,1.00273147,.0002706,2.2005,81.4859,164.8469,54.0547,0,U,37605,999,5349,0,.74E-6,0
ST-2,2011-022B,2026-07-14T20:00:38.649024,1.00271946,.0001485,0.0170,53.7940,76.1930,190.8810,0,U,37606,999,5555,0,-.22E-5,0
ZHONGXING-10,2011-026A,2026-07-14T18:57:20.805696,1.00268216,.0003276,1.1162,83.8847,26.0312,192.5225,0,U,37677,999,5527,0,-.196E-5,0
SES-3,2011-035A,2026-07-14T16:20:59.066016,1.00271329,.0001917,1.3955,82.7825,31.6635,320.3484,0,U,37748,999,5486,0,-.111E-5,0
KAZSAT-2,2011-035B,2026-07-14T10:24:21.820032,1.00272896,.0001811,0.0267,113.0493,59.5380,2.2899,0,U,37749,999,5367,0,-.205E-5,0
BEIDOU-2 IGSO-4,2011-038A,2026-07-12T21:52:21.720000,1.00279714,.01603423,54.6038,165.4445,231.4539,316.2369,0,U,37763,999,5490,0,-.17E-6,0
ASTRA 1N,2011-041A,2026-07-14T20:06:32.450112,1.00269469,.0005748,0.0607,8.4815,105.6242,139.4070,0,U,37775,999,4480,0,.111E-5,0
BSAT-3C (JCSAT-110R),2011-041B,2026-07-14T20:57:45.451008,1.00270284,.0000267,0.0207,341.5783,239.2998,136.2399,0,U,37776,999,5074,0,-.359E-5,0
PAKSAT-1R,2011-042A,2026-07-14T20:27:27.492192,1.00268351,.0003076,0.7586,84.3362,350.2416,202.9756,0,U,37779,999,5475,0,.145E-5,0
