BADR-5                  
1 36592U 10025A   26195.87405774  .00000145  00000+0  00000+0 0  9996
2 36592   0.0493 117.1729 0005132  78.9737  81.6960  1.00270318 53496
COMS 1                  
1 36744U 10032A   26195.45878229 -.00000258  00000+0  00000+0 0  9992
2 36744   4.8730  75.0265 0011267  14.7056 332.7369  0.99168113 51358
ARABSAT-5A              
1 36745U 10032B   26195.84758389  .00000145  00000+0  00000+0 0  9994
2 36745   0.1103  66.3768 0005735  56.4731 145.4828  1.00274041 58929
ECHOSTAR 15             
1 36792U 10034A   26195.67811919 -.00000008  00000+0  00000+0 0  9997
2 36792   0.0492 265.4673 0001809 187.9512 324.4208  1.00271775 58598
BEIDOU-2 IGSO-1         
1 36828U 10036A   26195.91730701 -.00000122  00000+0  00000+0 0  9992
2 36828  54.3063 162.7092 0059021 225.2797 342.1037  1.00264344 58375
NILESAT 201             
1 36830U 10037A   26194.47961264 -.00000061  00000+0  00000+0 0  9998
2 36830   0.0241 122.3173 0005477  16.5206 318.1955  1.00271853 58643
RASCOM-QAF 1R           
1 36831U 10037B   26195.77354730  .00000010  00000+0  00000+0 0  9990
2 36831   0.0335  85.6358 0006412  18.3077 110.0649  1.00273159 58583
AEHF-1 (USA 214)        
1 36868U 10039A   26195.84600632  .00000134  00000+0  00000+0 0  9992
2 36868   8.2871  67.6848 0003735  37.6469 161.8844  1.00274356 53931
XM-5                    
1 37185U 10053A   26194.27598828 -.00000026  00000+0  00000+0 0  9991
2 37185   0.0648 265.0318 0001728 322.3275  47.9546  1.00270903 57741
BSAT-3B                 
1 37207U 10056B   26195.85550491 -.00000359  00000+0  00000+0 0  9997
2 37207   0.0778 246.1088 0002627 296.5779 167.8392  1.00271349 52374
BEIDOU-2 G4             
1 37210U 10057A   26195.80464421 -.00000124  00000+0  00000+0 0  9994
2 37210   3.7129  68.7668 0005743 184.4843 129.0009  1.00269752 57565
SKYTERRA 1              
1 37218U 10061A   26195.68149919 -.00000129  00000+0  00000+0 0  9990
2 37218   5.1816  50.8079 0002533  24.8369   0.9060  1.00270230 57471
HYLAS 1                 
1 37237U 10065A   26195.87405774  .00000131  00000+0  00000+0 0  9992
2 37237   5.7114  72.6765 0001202 147.6936  58.9560  1.00640728  7161
INTELSAT 17 (IS-17)     
1 37238U 10065B   26195.87702417  .00000000  00000+0  00000+0 0  9992
2 37238   0.0330  98.0463 0002809  41.2100 175.1832  1.00270774 53528
BEIDOU-2 IGSO-2         
1 37256U 10068A   26195.65157983 -.00000189  00000+0  00000+0 0  9992
2 37256  47.4976 271.4891 0056996 213.8254 150.0718  1.00273103 57072
EUTELSAT KA-SAT 9A      
1 37258U 10069A   26195.70342596  .00000054  00000+0  00000+0 0  9997
2 37258   0.0612 356.1647 0004443 149.4374  49.1842  1.00272839 44283
HISPASAT 30W-5          
1 37264U 10070A   26195.76695310 -.00000225  00000+0  00000+0 0  9998
2 37264   0.0281 110.8025 0005568  16.3593  51.5622  1.00270478 53461
KOREASAT 6              
1 37265U 10070B   26195.80455755 -.00000120  00000+0  00000+0 0  9995
2 37265   0.0174  40.4676 0002489  88.1772 253.5489  1.00270983 57042
BEIDOU-2 IGSO-3         
1 37384U 11013A   26193.51258941 -.00000165  00000+0  00000+0 0  9998
2 37384  62.4426  39.9128 0035266 183.3051 358.3524  1.00260977 55918
INTELSAT 28 (IS-28)     
1 37392U 11016A   26195.86920436 -.00000235  00000+0  00000+0 0  9993
2 37392   1.8755  82.2459 0003650  36.2250  95.4515  1.00275881 53564
YAHSAT 1A               
1 37393U 11016B   26195.42673919  .00000000  00000+0  00000+0 0  9996
2 37393   0.0273  65.8741 0003070  47.4743  25.0682  1.00269506 42681
SBIRS GEO-1 (USA 230)   
1 37481U 11019A   26195.69330588  .00000089  00000+0  00000+0 0  9995
2 37481   4.5954  53.0981 0001966  53.3159 127.5295  1.00272450 55671
TELSTAR 14R             
1 37602U 11021A   26195.54654036 -.00000288  00000+0  00000+0 0  9996
2 37602   0.0856  84.9749 0001600   1.1935 339.9946  1.00270342 56100
GSAT-8                  
1 37605U 11022A   26195.86826634  .00000074  00000+0  00000+0 0  9992
2 37605   2.2005  81.4859 0002706 164.8469  54.0547  1.00273147 53491
ST-2                    
1 37606U 11022B   26195.83378066 -.00000220  00000+0  00000+0 0  9995
2 37606   0.0170  53.7940 0001485  76.1930 190.8810  1.00271946 55551
ZHONGXING-10            
1 37677U 11026A   26195.78982414 -.00000196  00000+0  00000+0 0  9991
2 37677   1.1162  83.8847 0003276  26.0312 192.5225  1.00268216 55274
SES-3                   
1 37748U 11035A   26195.68123919 -.00000111  00000+0  00000+0 0  9993
2 37748   1.3955  82.7825 0001917  31.6635 320.3484  1.00271329 54860
KAZSAT-2                
1 37749U 11035B   26195.43358588 -.00000205  00000+0  00000+0 0  9993
2 37749   0.0267 113.0493 0001811  59.5380   2.2899  1.00272896 53675
BEIDOU-2 IGSO-4         
1 37763U 11038A   26193.91136250 -.00000017  00000+0  00000+0 0  9994
2 37763  54.6038 165.4445 0160342 231.4539 316.2369  1.00279714 54905
ASTRA 1N                
1 37775U 11041A   26195.83787558  .00000111  00000+0  00000+0 0  9991
2 37775   0.0607   8.4815 0005748 105.6242 139.4070  1.00269469 44801
BSAT-3C (JCSAT-110R)    
1 37776U 11041B   26195.87344272 -.00000359  00000+0  00000+0 0  9993
2 37776   0.0207 341.5783 0000267 239.2998 136.2399  1.00270284 50742
PAKSAT-1R               
1 37779U 11042A   26195.85240153  .00000145  00000+0  00000+0 0  9990
2 37779   0.7586  84.3362 0003076 350.2416 202.9756  1.00268351 54752
